[{"OBJECT_NAME":"LEMUR-2-ANDIS","OBJECT_ID":"2017-042P","EPOCH":"2026-03-09T13:25:33.116448","MEAN_MOTION":15.30557934,"ECCENTRICITY":0.0009101,"INCLINATION":97.3659,"RA_OF_ASC_NODE":249.795,"ARG_OF_PERICENTER":4.3248,"MEAN_ANOMALY":355.807,"EPHEMERIS_TYPE":0,"CLASSIFICATION_TYPE":"U","NORAD_CAT_ID":42838,"ELEMENT_SET_NO":999,"REV_AT_EPOCH":47319,"BSTAR":0.00079875,"MEAN_MOTION_DOT":0.00023598,"MEAN_MOTION_DDOT":0},{"OBJECT_NAME":"STARLINK-35783","OBJECT_ID":"2025-247X","EPOCH":"2026-03-09T14:55:46.627680","MEAN_MOTION":15.3019825,"ECCENTRICITY":8.89e-5,"INCLINATION":53.1586,"RA_OF_ASC_NODE":191.7313,"ARG_OF_PERICENTER":80.2019,"MEAN_ANOMALY":279.9082,"EPHEMERIS_TYPE":0,"CLASSIFICATION_TYPE":"U","NORAD_CAT_ID":66286,"ELEMENT_SET_NO":999,"REV_AT_EPOCH":2102,"BSTAR":0.0012624,"MEAN_MOTION_DOT":0.00037214,"MEAN_MOTION_DDOT":0}]
